NORAD_CAT_ID,OBJECT_NAME,OBJECT_TYPE,EPOCH,MEAN_MOTION,ECCENTRICITY,INCLINATION,RA_OF_ASC_NODE,ARG_OF_PERICENTER,MEAN_ANOMALY,BSTAR,MEAN_MOTION_DOT,MEAN_MOTION_DDOT,TLE_LINE0,TLE_LINE1,TLE_LINE2,SEMIMAJOR_AXIS,PERIOD,APOGEE,PERIGEE,DECAYED
50819.0,STARLINK-3327,PAYLOAD,2022-02-04 10:34:00,15.73230929,0.0002095,53.2151,57.7878,30.634,329.4802,0.00014404,0.00019669,0.0,0 STARLINK-3327,1 50819U 22001S   22035.44028887  .00019669  00000-0  14404-3 0  9998,2 50819  53.2151  57.7878 0002095  30.6340 329.4802 15.73230929  5729,6727.807,91.531,351.081,348.26300000000015,0.0
50819.0,STARLINK-3327,PAYLOAD,2022-02-04 18:11:25,15.73221953,0.0001764,53.2154,56.2159,29.2126,330.8993,0.00016176,0.00022163,0.0,0 STARLINK-3327,1 50819U 22001S   22035.75792858  .00022163  00000-0  16176-3 0  9999,2 50819  53.2154  56.2159 0001764  29.2126 330.8993 15.73221953  5775,6727.833000000001,91.532,350.884,348.511,0.0
50819.0,STARLINK-3327,PAYLOAD,2022-02-05 06:00:00,15.73253343,0.0002042,53.2152,53.7822,33.2156,235.407,-0.00042649,-0.00060192,0.0,0 STARLINK-3327,1 50819U 22001S   22036.25001157 -.00060192  00000-0 -42649-3 0  9990,2 50819  53.2152  53.7822 0002042  33.2156 235.4070 15.73253343  5853,6727.743,91.53,350.982,348.2340000000001,0.0
50819.0,STARLINK-3327,PAYLOAD,2022-02-05 14:00:01,15.73244776,0.0002102,53.2153,52.1331,25.7496,331.8296,1.7056e-07,-5.98e-06,0.0,0 STARLINK-3327,1 50819U 22001S   22036.58334491 -.00000598  00000-0  17056-6 0  9996,2 50819  53.2153  52.1331 0002102  25.7496 331.8296 15.73244776  5909,6727.768,91.531,351.047,348.218,0.0
50819.0,STARLINK-3327,PAYLOAD,2022-02-05 22:00:01,15.73209058,0.0001877,53.2156,50.4813,29.6363,56.9858,-0.00033305,-0.00047122,0.0,0 STARLINK-3327,1 50819U 22001S   22036.91668981 -.00047122  00000-0 -33305-3 0  9994,2 50819  53.2156  50.4813 0001877  29.6363  56.9858 15.73209058  5961,6727.869000000002,91.533,350.997,348.472,0.0
50819.0,STARLINK-3327,PAYLOAD,2022-02-06 06:00:00,15.73179018,0.0002051,53.2157,48.8333,27.6292,147.8301,-0.0010561,-0.00146177,0.0,0 STARLINK-3327,1 50819U 22001S   22037.25001157 -.00146177  00000-0 -10561-2 0  9996,2 50819  53.2157  48.8333 0002051  27.6292 147.8301 15.73179018  6016,6727.955,91.534,351.2,348.44,0.0
50819.0,STARLINK-3327,PAYLOAD,2022-02-06 14:00:01,15.73058288,0.0002045,53.2152,47.1842,22.0549,242.3067,0.00026408,0.0003638,0.0,0 STARLINK-3327,1 50819U 22001S   22037.58335648  .00036380  00000-0  26408-3 0  9997,2 50819  53.2152  47.1842 0002045  22.0549 242.3067 15.73058288  6065,6728.299,91.541,351.54,348.788,0.0
50819.0,STARLINK-3327,PAYLOAD,2022-02-06 22:00:00,15.73058004,0.0001852,53.2153,45.5333,29.4746,323.5984,0.0013315,0.00189367,0.0,0 STARLINK-3327,1 50819U 22001S   22037.91667824  .00189367  00000-0  13315-2 0  9994,2 50819  53.2153  45.5333 0001852  29.4746 323.5984 15.73058004  3690,6728.3,91.541,351.411,348.9190000000001,0.0
50819.0,STARLINK-3327,PAYLOAD,2022-02-07 05:39:13,15.73152045,0.000154,53.2162,43.958,39.4433,320.6699,0.00041219,0.00057506,0.0,0 STARLINK-3327,1 50819U 22001S   22038.23557331  .00057506  00000-0  41219-3 0  9995,2 50819  53.2162  43.9580 0001540  39.4433 320.6699 15.73152045  6160,6728.031999999997,91.536,350.93300000000005,348.861,0.0
50819.0,STARLINK-3327,PAYLOAD,2022-02-07 14:00:01,15.73229809,0.0002119,53.2158,42.2364,29.9439,140.8906,0.00021019,0.00029019,0.0,0 STARLINK-3327,1 50819U 22001S   22038.58334491  .00029019  00000-0  21019-3 0  9997,2 50819  53.2158  42.2364 0002119  29.9439 140.8906 15.73229809  3680,6727.81,91.531,351.101,348.25,0.0
50819.0,STARLINK-3327,PAYLOAD,2022-02-07 22:00:00,15.73260924,0.000189,53.216,40.5848,32.6503,227.1553,-5.0765e-05,-7.758e-05,0.0,0 STARLINK-3327,1 50819U 22001S   22038.91667824 -.00007758  00000-0 -50765-4 0  9992,2 50819  53.2160  40.5848 0001890  32.6503 227.1553 15.73260924  6277,6727.721,91.53,350.858,348.315,0.0
50819.0,STARLINK-3327,PAYLOAD,2022-02-08 14:00:01,15.73213524,0.0001997,53.2155,37.2872,23.909,53.8738,8.728100000000001e-05,0.00011653,0.0,0 STARLINK-3327,1 50819U 22001S   22039.58334491  .00011653  00000-0  87281-4 0  9997,2 50819  53.2155  37.2872 0001997  23.9090  53.8738 15.73213524  6388,6727.857,91.532,351.065,348.37800000000016,0.0
50819.0,STARLINK-3327,PAYLOAD,2022-02-08 22:00:01,15.73234216,0.000176,53.2156,35.636,30.2279,136.566,0.00010111,0.00013613,0.0,0 STARLINK-3327,1 50819U 22001S   22039.91668981  .00013613  00000-0  10111-3 0  9993,2 50819  53.2156  35.6360 0001760  30.2279 136.5660 15.73234216  3696,6727.7980000000025,91.531,350.847,348.47900000000016,0.0
50819.0,STARLINK-3327,PAYLOAD,2022-02-09 14:00:01,15.73191758,0.0001975,53.2159,32.3386,26.6208,318.0293,0.00015038,0.00020529,0.0,0 STARLINK-3327,1 50819U 22001S   22040.58334491  .00020529  00000-0  15038-3 0  9991,2 50819  53.2159  32.3386 0001975  26.6208 318.0293 15.73191758  6538,6727.919,91.534,351.112,348.455,0.0
50819.0,STARLINK-3327,PAYLOAD,2022-02-10 06:00:00,15.73212273,0.0002151,53.2162,29.0398,33.6239,128.8951,-0.00061359,-0.00085915,0.0,0 STARLINK-3327,1 50819U 22001S   22041.25001157 -.00085915  00000-0 -61359-3 0  9995,2 50819  53.2162  29.0398 0002151  33.6239 128.8951 15.73212273  6643,6727.86,91.532,351.172,348.278,0.0
50819.0,STARLINK-3327,PAYLOAD,2022-02-10 14:00:01,15.73176933,0.0002015,53.2156,27.3897,31.6343,219.8682,0.00011403,0.00015397,0.0,0 STARLINK-3327,1 50819U 22001S   22041.58335648  .00015397  00000-0  11403-3 0  9996,2 50819  53.2156  27.3897 0002015  31.6343 219.8682 15.73176933  6693,6727.9609999999975,91.535,351.182,348.47,0.0
50819.0,STARLINK-3327,PAYLOAD,2022-02-10 22:00:00,15.73183556,0.0001827,53.2158,25.7389,37.8661,302.4767,0.00064087,0.00090231,0.0,0 STARLINK-3327,1 50819U 22001S   22041.91667824  .00090231  00000-0  64087-3 0  9993,2 50819  53.2158  25.7389 0001827  37.8661 302.4767 15.73183556  3682,6727.941999999999,91.534,351.036,348.57800000000015,0.0
50819.0,STARLINK-3327,PAYLOAD,2022-02-11 05:42:26,15.73254212,0.0001925,53.2162,24.1505,37.358,322.7574,0.00055931,0.00078801,0.0,0 STARLINK-3327,1 50819U 22001S   22042.23780177  .00078801  00000-0  55931-3 0  9993,2 50819  53.2162  24.1505 0001925  37.3580 322.7574 15.73254212  6798,6727.741,91.53,350.901,348.311,0.0
50819.0,STARLINK-3327,PAYLOAD,2022-02-11 14:00:01,15.73305757,0.0001924,53.216,22.4409,33.5992,124.7345,-0.00061475,-0.00086412,0.0,0 STARLINK-3327,1 50819U 22001S   22042.58334491 -.00086412  00000-0 -61475-3 0  9994,2 50819  53.2160  22.4409 0001924  33.5992 124.7345 15.73305757  6858,6727.594,91.527,350.75300000000016,348.164,0.0
50819.0,STARLINK-3327,PAYLOAD,2022-02-11 22:28:40,15.73295582,0.0001781,53.2164,20.6924,37.629,322.4855,0.00044715,0.00062865,0.0,0 STARLINK-3327,1 50819U 22001S   22042.93658200  .00062865  00000-0  44715-3 0  9992,2 50819  53.2164  20.6924 0001781  37.6290 322.4855 15.73295582  5712,6727.623000000001,91.528,350.686,348.289,0.0
50819.0,STARLINK-3327,PAYLOAD,2022-02-12 04:34:35,15.73263592,0.0002068,53.2164,19.4342,42.302,317.816,0.00046855,0.00065838,0.0,0 STARLINK-3327,1 50819U 22001S   22043.19068616  .00065838  00000-0  46855-3 0  9997,2 50819  53.2164  19.4342 0002068  42.3020 317.8160 15.73263592  6944,6727.714,91.529,350.97,348.18800000000016,0.0
50819.0,STARLINK-3327,PAYLOAD,2022-02-12 14:00:01,15.73151065,0.0001769,53.2158,17.4916,29.443,35.8216,-0.0004086,-0.00057458,0.0,0 STARLINK-3327,1 50819U 22001S   22043.58334491 -.00057458  00000-0 -40860-3 0  9998,2 50819  53.2158  17.4916 0001769  29.4430  35.8216 15.73151065  3701,6728.035,91.536,351.09,348.71,0.0
50819.0,STARLINK-3327,PAYLOAD,2022-02-12 22:00:00,15.73123583,0.0001761,53.2158,15.8418,42.1221,112.0783,0.00056201,0.00078739,0.0,0 STARLINK-3327,1 50819U 22001S   22043.91667824  .00078739  00000-0  56201-3 0  9993,2 50819  53.2158  15.8418 0001761  42.1221 112.0783 15.73123583  7066,6728.113,91.538,351.163,348.793,0.0
50819.0,STARLINK-3327,PAYLOAD,2022-02-13 14:00:01,15.73177843,0.0001721999999999,53.2162,12.543,31.9891,300.0144,0.00023205,0.0003204,0.0,0 STARLINK-3327,1 50819U 22001S   22044.58334491  .00032040  00000-0  23205-3 0  9991,2 50819  53.2162  12.5430 0001722  31.9891 300.0144 15.73177843  7164,6727.958000000001,91.534,350.982,348.665,0.0
50819.0,STARLINK-3327,PAYLOAD,2022-02-14 06:00:00,15.7317696,0.0001927,53.2168,9.245,33.7421,116.1057,-0.00025843,-0.00036698,0.0,0 STARLINK-3327,1 50819U 22001S   22045.25001157 -.00036698  00000-0 -25843-3 0  9991,2 50819  53.2168   9.2450 0001927  33.7421 116.1057 15.73176960  7271,6727.9609999999975,91.535,351.122,348.529,0.0
50819.0,STARLINK-3327,PAYLOAD,2022-02-14 14:00:01,15.731759099999998,0.0001664,53.2163,7.5942,31.1387,207.5941,-0.00055321,-0.00077472,0.0,0 STARLINK-3327,1 50819U 22001S   22045.58334491 -.00077472  00000-0 -55321-3 0  9996,2 50819  53.2163   7.5942 0001664  31.1387 207.5941 15.73175910  3697,6727.964,91.535,350.9480000000001,348.709,0.0
50819.0,STARLINK-3327,PAYLOAD,2022-02-14 20:00:01,15.73094438,0.0001477,53.2164,6.3562,32.1616,183.2176,0.00061517,0.00086214,0.0,0 STARLINK-3327,1 50819U 22001S   22045.83334491  .00086214  00000-0  61517-3 0  9990,2 50819  53.2164   6.3562 0001477  32.1616 183.2176 15.73094438  3685,6728.196,91.539,351.055,349.06699999999995,0.0
50819.0,STARLINK-3327,PAYLOAD,2022-02-15 06:00:00,15.73141206,0.000171,53.2167,4.2971,29.1157,27.3236,0.00052819,0.00073977,0.0,0 STARLINK-3327,1 50819U 22001S   22046.25001157  .00073977  00000-0  52819-3 0  9994,2 50819  53.2167   4.2971 0001710  29.1157  27.3236 15.73141206  7433,6728.063,91.537,351.07800000000015,348.777,0.0
50819.0,STARLINK-3327,PAYLOAD,2022-02-15 14:00:01,15.73199127,0.0001581,53.2169,2.6460000000000004,29.516,115.8042,0.00013229,0.00017985,0.0,0 STARLINK-3327,1 50819U 22001S   22046.58334491  .00017985  00000-0  13229-3 0  9999,2 50819  53.2169   2.6460 0001581  29.5160 115.8042 15.73199127  3668,6727.898,91.533,350.826,348.699,0.0
